      2.10          N: GNSS NAV DATA                        RINEX VERSION / TYPE
fic2rin                                 09/01/2020 00:17:46 PGM / RUN BY / DATE
                                                            END OF HEADER
11 20  8 31 12  0  0.0-1.774299889803e-04 1.057287590811e-11 0.000000000000e+00
    7.000000000000e+01 8.543750000000e+01 6.018464978938e-09 3.772967326091e-01
    4.410743713379e-06 1.601315266453e-02 3.455206751823e-06 5.153717851639e+03
    1.296000000000e+05-1.247972249985e-07 8.409874309593e-01-1.341104507446e-07
    9.132809847217e-01 2.890625000000e+02 2.034770531354e+00-9.211097964917e-09
    2.760829285336e-10 1.000000000000e+00 2.121000000000e+03 0.000000000000e+00
    2.400000000000e+00 0.000000000000e+00-1.210719347000e-08 7.000000000000e+01
    1.224000000000e+05 4.000000000000e+00
24 20  8 31 12  0  0.0-1.793261617422e-05-5.684341886081e-13 0.000000000000e+00
    1.020000000000e+02 1.912500000000e+01 5.508086576772e-09 1.201969949844e+00
    9.406358003616e-07 9.987552184612e-03 4.563480615616e-06 5.153631185532e+03
    1.296000000000e+05-9.499490261078e-08-1.890799174827e+00 8.009374141693e-08
    9.356818417387e-01 2.784062500000e+02 6.736207622772e-01-8.662860842926e-09
    7.750322832055e-11 1.000000000000e+00 2.121000000000e+03 0.000000000000e+00
    2.400000000000e+00 0.000000000000e+00 2.793967723846e-09 1.020000000000e+02
    1.224000000000e+05 4.000000000000e+00
12 20  8 31 12  0  0.0 7.340777665377e-05-5.002220859751e-12 0.000000000000e+00
    7.000000000000e+01-1.406250000000e+00 4.160887603384e-09-4.960157516984e-01
   -3.725290298462e-08 7.900577969849e-03 1.071766018867e-05 5.153639476776e+03
    1.296000000000e+05-2.980232238770e-08-7.091562946804e-01 7.264316082001e-08
    9.770654345143e-01 1.888125000000e+02 1.167101992311e+00-7.834969215059e-09
   -4.593048461762e-10 1.000000000000e+00 2.121000000000e+03 0.000000000000e+00
    2.400000000000e+00 0.000000000000e+00-1.210719347000e-08 7.000000000000e+01
    1.224000000000e+05 4.000000000000e+00
13 20  8 31 12  0  0.0 4.087155684829e-05 3.524291969370e-12 0.000000000000e+00
    4.400000000000e+01 1.925000000000e+01 4.146958451751e-09 2.412468454617e+00
    9.927898645401e-07 4.421802237630e-03 1.042522490025e-05 5.153692749023e+03
    1.296000000000e+05 5.401670932770e-08-2.746346230676e+00-3.166496753693e-08
    9.682559349462e-01 1.819062500000e+02 1.047149137873e+00-7.740679573232e-09
    6.046680439940e-10 1.000000000000e+00 2.121000000000e+03 0.000000000000e+00
    2.400000000000e+00 0.000000000000e+00-1.117587089539e-08 4.400000000000e+01
    1.224000000000e+05 4.000000000000e+00
27 20  8 31 12  0  0.0-3.844229504466e-04-9.094947017729e-12 0.000000000000e+00
    1.180000000000e+02 1.061875000000e+02 3.995880730186e-09 3.063461180403e+00
    5.438923835754e-06 8.332975441590e-03 9.816139936447e-06 5.153672754288e+03
    1.296000000000e+05-1.061707735062e-07 2.660110358102e-01-8.568167686462e-08
    9.779647429227e-01 1.996875000000e+02 5.784730663309e-01-7.598887952756e-09
    2.296524230881e-10 1.000000000000e+00 2.121000000000e+03 0.000000000000e+00
    3.400000000000e+00 0.000000000000e+00 1.862645149231e-09 1.180000000000e+02
    1.224000000000e+05 4.000000000000e+00
25 20  8 31 12  0  0.0 4.261126741767e-05 5.115907697473e-12 0.000000000000e+00
    6.200000000000e+01-1.584375000000e+01 4.512330813833e-09-7.335170508437e-01
   -6.537884473801e-07 9.096084861085e-03 9.970739483833e-06 5.153742837906e+03
    1.296000000000e+05 3.911554813385e-08-7.792700595430e-01 1.303851604462e-07
    9.643310939751e-01 1.927187500000e+02 9.341685246687e-01-8.013548082158e-09
   -5.010923010771e-10 1.000000000000e+00 2.121000000000e+03 0.000000000000e+00
    2.400000000000e+00 0.000000000000e+00 5.587935447693e-09 6.200000000000e+01
    1.224000000000e+05 4.000000000000e+00
26 20  8 31 12  0  0.0 2.708039246500e-04 6.480149750132e-12 0.000000000000e+00
    6.100000000000e+01-2.753125000000e+01 4.863774024282e-09-1.295246335112e+00
   -1.611188054085e-06 4.898300161585e-03 9.333714842796e-06 5.153668628693e+03
    1.296000000000e+05 9.313225746155e-09-8.163391792092e-01-1.396983861923e-07
    9.453338153479e-01 1.880312500000e+02 1.996480451482e-01-8.109266354922e-09
   -4.543046378974e-10 1.000000000000e+00 2.121000000000e+03 0.000000000000e+00
    2.400000000000e+00 0.000000000000e+00 6.984919309616e-09 6.100000000000e+01
    1.224000000000e+05 4.000000000000e+00
18 20  8 31 12  0  0.0 2.811625599861e-04 7.503331289627e-12 0.000000000000e+00
    4.900000000000e+01 1.206250000000e+01 4.898775482233e-09 1.378356169724e+00
    6.109476089478e-07 9.748139418662e-04 4.880130290985e-07 5.153712850571e+03
    1.296000000000e+05-2.980232238770e-08 1.337725962204e+00-7.823109626770e-08
    9.645902118770e-01 3.680312500000e+02 2.696785601705e+00-8.610358655999e-09
   -7.928901699153e-11 1.000000000000e+00 2.121000000000e+03 0.000000000000e+00
    2.400000000000e+00 0.000000000000e+00-8.381903171539e-09 3.050000000000e+02
    1.224000000000e+05 4.000000000000e+00
28 20  8 31 12  0  0.0 6.838180124760e-04-4.092726157978e-12 0.000000000000e+00
    9.100000000000e+01 1.968750000000e+00 3.980165789881e-09-2.453866771663e+00
    1.788139343262e-07 1.841076568235e-02 1.004710793495e-05 5.153666057587e+03
    1.296000000000e+05 1.955777406693e-07-6.866402723635e-01 2.067536115646e-07
    9.763173991499e-01 1.867187500000e+02-1.398578207756e+00-7.351377642958e-09
   -3.421571093598e-10 1.000000000000e+00 2.121000000000e+03 0.000000000000e+00
    4.850000000000e+00 0.000000000000e+00-1.117587089539e-08 9.100000000000e+01
    1.224000000000e+05 4.000000000000e+00
23 20  8 31 12  0  0.0 5.266303196549e-05 7.730704965070e-12 0.000000000000e+00
    1.060000000000e+02-1.359687500000e+02 4.363396038674e-09 1.155759258447e+00
   -7.258728146553e-06 9.786467999220e-04 7.584691047668e-06 5.153644657135e+03
    1.296000000000e+05 6.146728992462e-08 2.337173415740e+00 3.725290298462e-09
    9.615669263564e-01 2.372500000000e+02 1.799184537223e+00-8.079265105250e-09
   -4.696624204679e-10 1.000000000000e+00 2.121000000000e+03 0.000000000000e+00
    3.072000000000e+03 6.300000000000e+01-8.381903171539e-09 6.180000000000e+02
    1.224000000000e+05 4.000000000000e+00
27 20  8 31 11 59 44.0-3.844224847853e-04-9.094947017729e-12 0.000000000000e+00
    2.000000000000e+01 1.061875000000e+02 3.996237887920e-09 3.061128523879e+00
    5.438923835754e-06 8.332980331033e-03 9.814277291298e-06 5.153672758102e+03
    1.295840000000e+05-1.061707735062e-07 2.660111543066e-01-8.568167686462e-08
    9.779647414598e-01 1.996875000000e+02 5.784719808456e-01-7.598887952756e-09
    2.292952653539e-10 1.000000000000e+00 2.121000000000e+03 0.000000000000e+00
    2.400000000000e+00 0.000000000000e+00 1.862645149231e-09 2.000000000000e+01
    1.224900000000e+05 4.000000000000e+00
 4 20  8 31 12 14 40.0-1.307190395892e-04-4.206412995700e-12 0.000000000000e+00
    1.290000000000e+02 8.062500000000e+00 4.314465429089e-09 2.417817295658e+00
    3.818422555923e-07 8.107473840937e-04 1.056119799614e-05 5.153641622543e+03
    1.304800000000e+05-7.450580596924e-09-2.842021535342e+00-2.607703208923e-08
    9.605049078105e-01 1.766250000000e+02-2.797994178957e+00-7.843541000680e-09
    4.275178078327e-10 1.000000000000e+00 2.121000000000e+03 0.000000000000e+00
    2.400000000000e+00 0.000000000000e+00-4.190951585770e-09 3.850000000000e+02
    1.233000000000e+05 4.000000000000e+00
 2 20  8 31 14  0  0.0-5.099708214402e-04-5.343281372916e-12 0.000000000000e+00
    6.600000000000e+01 2.690625000000e+01 4.797699843456e-09 2.192870529791e+00
    1.100823283195e-06 1.979596645106e-02 6.034970283508e-07 5.153767484665e+03
    1.368000000000e+05 2.607703208923e-07 1.243567375893e+00-2.123415470123e-07
    9.599213161416e-01 3.613125000000e+02-1.607517731315e+00-8.176054851217e-09
    2.500104139373e-12 1.000000000000e+00 2.121000000000e+03 0.000000000000e+00
    2.400000000000e+00 0.000000000000e+00-1.769512891769e-08 6.600000000000e+01
    1.296000000000e+05 4.000000000000e+00
 1 20  8 31 14  0  0.0 3.578281030059e-05 6.821210263297e-13 0.000000000000e+00
    6.600000000000e+01 2.359375000000e+01 4.536260382024e-09 1.950808833693e+00
    1.052394509315e-06 1.008110656403e-02 1.572072505951e-06 5.153697587967e+03
    1.368000000000e+05-2.309679985046e-07 1.321861360260e+00-7.264316082001e-08
    9.809698195019e-01 3.608125000000e+02 8.256999853072e-01-8.263915653829e-09
    9.321816862518e-11 1.000000000000e+00 2.121000000000e+03 0.000000000000e+00
    3.400000000000e+00 0.000000000000e+00 5.122274160385e-09 6.600000000000e+01
    1.296000000000e+05 4.000000000000e+00
 5 20  8 31 14  0  0.0-2.004485577345e-05-7.958078640513e-13 0.000000000000e+00
    2.500000000000e+01-1.113750000000e+02 4.628764235181e-09-1.419630128493e+00
   -5.802139639854e-06 6.092816358432e-03 7.394701242447e-06 5.153727481842e+03
    1.368000000000e+05 1.285225152969e-07 2.328950989585e+00 2.607703208923e-08
    9.536220801302e-01 2.322500000000e+02 8.599674149689e-01-8.114623720935e-09
   -3.671581507536e-10 1.000000000000e+00 2.121000000000e+03 0.000000000000e+00
    2.400000000000e+00 0.000000000000e+00-1.117587089539e-08 2.500000000000e+01
    1.296000000000e+05 4.000000000000e+00
 3 20  8 31 14  0  0.0-2.858834341168e-04-1.080024958355e-11 0.000000000000e+00
    3.300000000000e+01-1.145000000000e+02 4.371610666560e-09 8.199324263910e-01
   -5.912035703659e-06 3.192016272806e-03 7.340684533119e-06 5.153761754990e+03
    1.368000000000e+05-3.352761268616e-08 2.362152409861e+00 2.980232238770e-08
    9.667326758849e-01 2.410312500000e+02 8.500066076499e-01-8.051406801982e-09
   -3.882304570711e-10 1.000000000000e+00 2.121000000000e+03 0.000000000000e+00
    2.400000000000e+00 0.000000000000e+00 1.862645149231e-09 3.300000000000e+01
    1.296000000000e+05 4.000000000000e+00
